[{"OBJECT_NAME":"SNUGLITE-II","OBJECT_ID":"2022-065F","EPOCH":"2026-03-09T22:40:50.457216","MEAN_MOTION":14.64130848,"ECCENTRICITY":0.00069277,"INCLINATION":98.203,"RA_OF_ASC_NODE":214.0486,"ARG_OF_PERICENTER":343.9284,"MEAN_ANOMALY":16.1698,"EPHEMERIS_TYPE":0,"CLASSIFICATION_TYPE":"U","NORAD_CAT_ID":52899,"ELEMENT_SET_NO":999,"REV_AT_EPOCH":19647,"BSTAR":0.00030689626,"MEAN_MOTION_DOT":1.565e-5,"MEAN_MOTION_DDOT":0},{"OBJECT_NAME":"NOAA 17 DEB","OBJECT_ID":"2002-032DR","EPOCH":"2026-03-09T13:05:42.467424","MEAN_MOTION":14.68594224,"ECCENTRICITY":0.0025333,"INCLINATION":98.8174,"RA_OF_ASC_NODE":100.1444,"ARG_OF_PERICENTER":244.3297,"MEAN_ANOMALY":115.5289,"EPHEMERIS_TYPE":0,"CLASSIFICATION_TYPE":"U","NORAD_CAT_ID":49487,"ELEMENT_SET_NO":999,"REV_AT_EPOCH":26215,"BSTAR":0.0024527,"MEAN_MOTION_DOT":0.00014285,"MEAN_MOTION_DDOT":0}]
